[{"OBJECT_NAME":"OPTICUBE 04","OBJECT_ID":"2016-067D","EPOCH":"2026-03-09T12:14:28.758048","MEAN_MOTION":15.09188378,"ECCENTRICITY":0.00170901,"INCLINATION":98.0811,"RA_OF_ASC_NODE":275.5525,"ARG_OF_PERICENTER":94.6311,"MEAN_ANOMALY":265.6869,"EPHEMERIS_TYPE":0,"CLASSIFICATION_TYPE":"U","NORAD_CAT_ID":41851,"ELEMENT_SET_NO":999,"REV_AT_EPOCH":51013,"BSTAR":0.00024566739,"MEAN_MOTION_DOT":3.845e-5,"MEAN_MOTION_DDOT":0},{"OBJECT_NAME":"STARLINK-5481","OBJECT_ID":"2023-094AP","EPOCH":"2026-03-09T22:00:01.999584","MEAN_MOTION":15.05368952,"ECCENTRICITY":0.00017431,"INCLINATION":43.0015,"RA_OF_ASC_NODE":16.0381,"ARG_OF_PERICENTER":263.6038,"MEAN_ANOMALY":134.1698,"EPHEMERIS_TYPE":0,"CLASSIFICATION_TYPE":"U","NORAD_CAT_ID":57255,"ELEMENT_SET_NO":999,"REV_AT_EPOCH":573,"BSTAR":0.0021002529,"MEAN_MOTION_DOT":0.00030526,"MEAN_MOTION_DDOT":0}]
